[
    {
        "Altitude(m)": 553534.5291467934,
        "Argument of Periapsis(deg)": 0.033114955553567506,
        "Eccentricity": 0.0,
        "Inclination(deg)": 53.0,
        "Latitude(deg)": 8.334142978216477,
        "Longitude(deg)": -142.68471090106314,
        "Mean Anomaly(deg)": 10.458064337887972,
        "RAAN(deg)": 314.9507168426401,
        "Satellite Name": "Starlink Shell 1 1405",
        "Satellite Number": 1405,
        "Semi-Major Axis(m)": 6931778.249405717,
        "Time(s)": 950
    },
    {
        "Altitude(m)": 553516.9593863209,
        "Argument of Periapsis(deg)": 0.03346353403307874,
        "Eccentricity": 0.0,
        "Inclination(deg)": 53.0,
        "Latitude(deg)": 8.834866535301714,
        "Longitude(deg)": -142.34071815189213,
        "Mean Anomaly(deg)": 11.084895541444718,
        "RAAN(deg)": 314.9501980725626,
        "Satellite Name": "Starlink Shell 1 1405",
        "Satellite Number": 1405,
        "Semi-Major Axis(m)": 6931778.249405717,
        "Time(s)": 960
    },
    {
        "Altitude(m)": 553502.1202848703,
        "Argument of Periapsis(deg)": 0.03381211251258998,
        "Eccentricity": 0.0,
        "Inclination(deg)": 53.0,
        "Latitude(deg)": 9.335186129369536,
        "Longitude(deg)": -141.99568084660459,
        "Mean Anomaly(deg)": 11.711726745001465,
        "RAAN(deg)": 314.94967930248515,
        "Satellite Name": "Starlink Shell 1 1405",
        "Satellite Number": 1405,
        "Semi-Major Axis(m)": 6931778.249405717,
        "Time(s)": 970
    },
    {
        "Altitude(m)": 553489.9958087483,
        "Argument of Periapsis(deg)": 0.034160690992101214,
        "Eccentricity": 0.0,
        "Inclination(deg)": 53.0,
        "Latitude(deg)": 9.835076840219541,
        "Longitude(deg)": -141.649537203799,
        "Mean Anomaly(deg)": 12.338557948558162,
        "RAAN(deg)": 314.94916053240763,
        "Satellite Name": "Starlink Shell 1 1405",
        "Satellite Number": 1405,
        "Semi-Major Axis(m)": 6931778.249405717,
        "Time(s)": 980
    },
    {
        "Altitude(m)": 553480.5686618985,
        "Argument of Periapsis(deg)": 0.034509269471612446,
        "Eccentricity": 0.0,
        "Inclination(deg)": 53.0,
        "Latitude(deg)": 10.334513514506252,
        "Longitude(deg)": -141.3022244554907,
        "Mean Anomaly(deg)": 12.965389152114804,
        "RAAN(deg)": 314.9486417623302,
        "Satellite Name": "Starlink Shell 1 1405",
        "Satellite Number": 1405,
        "Semi-Major Axis(m)": 6931778.249405717,
        "Time(s)": 990
    }
]